{
    "links": {
        "self": "http://www.neowsapp.com/rest/v1/neo/3575219?api_key=iIulBulltgU6a56xZRHN4H3l9WmuAYTsLGpBGhQ2"
    },
    "id": "3575219",
    "neo_reference_id": "3575219",
    "name": "(2011 PK10)",
    "designation": "2011 PK10",
    "nasa_jpl_url": "http://ssd.jpl.nasa.gov/sbdb.cgi?sstr=3575219",
    "absolute_magnitude_h": 23.1,
    "estimated_diameter": {
        "kilometers": {
            "estimated_diameter_min": 0.063760979,
            "estimated_diameter_max": 0.1425738833
        },
        "meters": {
            "estimated_diameter_min": 63.7609789875,
            "estimated_diameter_max": 142.5738833281
        },
        "miles": {
            "estimated_diameter_min": 0.0396192233,
            "estimated_diameter_max": 0.0885912765
        },
        "feet": {
            "estimated_diameter_min": 209.1895703015,
            "estimated_diameter_max": 467.7620993781
        }
    },
    "is_potentially_hazardous_asteroid": false,
    "close_approach_data": [
        {
            "close_approach_date": "2011-08-13",
            "close_approach_date_full": "2011-Aug-13 11:58",
            "epoch_date_close_approach": 1313236680000,
            "relative_velocity": {
                "kilometers_per_second": "25.4258758712",
                "kilometers_per_hour": "91533.1531364806",
                "miles_per_hour": "56875.141736387"
            },
            "miss_distance": {
                "astronomical": "0.0276457254",
                "lunar": "10.7541871806",
                "kilometers": "4135741.634444898",
                "miles": "2569830.6870116724"
            },
            "orbiting_body": "Earth"
        }
    ],
    "orbital_data": {
        "orbit_id": "6",
        "orbit_determination_date": "2017-04-06 08:53:00",
        "first_observation_date": "2011-08-14",
        "last_observation_date": "2011-08-22",
        "data_arc_in_days": 8,
        "observations_used": 41,
        "orbit_uncertainty": "8",
        "minimum_orbit_intersection": ".0256232",
        "jupiter_tisserand_invariant": "3.684",
        "epoch_osculation": "2455791.5",
        "eccentricity": ".4135167400315875",
        "semi_major_axis": "1.768014303351534",
        "inclination": "45.76037213413099",
        "ascending_node_longitude": "140.7758215236999",
        "orbital_period": "858.6715782154236",
        "perihelion_distance": "1.036910792300389",
        "perihelion_argument": "173.7077989466341",
        "aphelion_distance": "2.499117814402678",
        "perihelion_time": "2455781.254867395410",
        "mean_anomaly": "4.295295001282891",
        "mean_motion": ".4192522602741641",
        "equinox": "J2000",
        "orbit_class": {
            "orbit_class_type": "AMO",
            "orbit_class_description": "Near-Earth asteroid orbits similar to that of 1221 Amor",
            "orbit_class_range": "1.017 AU < q (perihelion) < 1.3 AU"
        }
    },
    "is_sentry_object": false
}